SL-16 R/B               
1 22566U 93016B   25359.28584943  .00000287  00000+0  17171-3 0  9993
2 22566  71.0084  11.4527 0008044  72.6798 287.5204 14.15292823691649
COSMOS 2242             
1 22626U 93024A   25358.94185073  .00002166  00000+0  18967-3 0  9994
2 22626  82.5189 338.1809 0015872 190.7733 169.3152 14.96155092769212
SL-16 R/B               
1 22803U 93059B   25358.94281270  .00000310  00000+0  17699-3 0  9995
2 22803  70.9881 168.7528 0018588 318.4418  41.5291 14.17215767668942
ARIANE 40 R/B           
1 22830U 93061H   25359.11842298  .00000244  00000+0  10544-3 0  9999
2 22830  98.5059  64.4223 0011499 141.0700 219.1315 14.32809296683420
COSMOS 2278             
1 23087U 94023A   25359.26642961  .00000059  00000+0  55279-4 0  9993
2 23087  71.0534 330.8021 0007797 157.1451 203.0021 14.14348453634281
SL-16 R/B               
1 23088U 94023B   25359.06398120 -.00000240  00000+0 -99339-4 0  9996
2 23088  70.9978 227.6053 0002077   3.2904 356.8231 14.14999689635532
SL-16 R/B               
1 23343U 94074B   25359.12186948  .00000482  00000+0  71340-4 0  9994
2 23343  97.7190  27.9336 0008040 101.9972 324.8021 14.79303158676225
SL-16 R/B               
1 23405U 94077B   25358.86271225 -.00000182  00000+0 -68718-4 0  9993
2 23405  70.9820 149.9100 0005049 275.3583  84.6964 14.15552330605644
ARIANE 40+ R/B          
1 23561U 95021B   25359.10699903  .00000322  00000+0  11668-3 0  9996
2 23561  98.4635  66.5459 0006823  15.4358  43.5292 14.39704612608516
SL-16 R/B               
1 23705U 95058B   25359.29001954 -.00000160  00000+0 -57651-4 0  9994
2 23705  71.0217 336.4546 0014630 238.7929 121.1761 14.15481425557328
SL-16 R/B               
1 24298U 96051B   25359.23660182 -.00000013  00000+0  19464-4 0  9990
2 24298  70.7595 332.8311 0019488 246.0305 113.8775 14.12397574511137
ORBVIEW 2 (SEASTAR)     
1 24883U 97037A   25359.32290381  .00000302  00000+0  12136-3 0  9993
2 24883  98.8462 156.7145 0001224 285.8271  74.2778 14.35425705497804
